IRIDIUM 36              
1 24967U 97056C   25020.50508790  .00000950  00000+0  31167-3 0  9992
2 24967  86.3942 234.9892 0002123  92.6889 267.4552 14.37362988431009
IRIDIUM 39              
1 25042U 97069D   25019.73017784  .00001342  00000+0  34897-3 0  9991
2 25042  86.3899 274.7915 0020156  82.8456 277.5039 14.48837597427462
IRIDIUM 38              
1 25043U 97069E   25020.30137015  .00001123  00000+0  36590-3 0  9996
2 25043  86.3964 295.4018 0001407 143.0228 217.1067 14.37869689424963
IRIDIUM 42              
1 25077U 97077A   25019.84819188  .00001034  00000+0  34868-3 0  9994
2 25077  86.3974 301.5808 0001528  94.2223 265.9149 14.36124047419904
IRIDIUM 44              
1 25078U 97077B   25020.27174773  .00001052  00000+0  32819-3 0  9992
2 25078  86.3950 283.7101 0003271 116.6898 243.4636 14.39993722422442
IRIDIUM 45              
1 25104U 97082A   25019.82338598  .00034318  00000+0  14579-2 0  9997
2 25104  86.3621 119.5557 0133299 164.3561 196.1863 15.15091611429779
IRIDIUM 24              
1 25105U 97082B   25019.87899668  .00001300  00000+0  39184-3 0  9998
2 25105  86.3950 143.1885 0010766 198.5517 161.5292 14.41826196421849
IRIDIUM 51              
1 25262U 98018A   25019.78967636  .00041398  00000+0  12743-2 0  9995
2 25262  86.3910 128.6042 0110502  95.8417 265.5440 15.27584722424506
